{"type": "FeatureCollection", "features": [ {"type": "Feature", "properties": {"norad_id": 34553, "name": "COSMOS 2251 DEB", "group": "cosmos-2251-debris", "lat": -40.0183020944585, "lon": 3.0470647736963135, "alt_km": 693.9910090366002, "timestamp": "2025-12-24T16:52:41.932029+00:00", "meta": {"OBJECT_NAME": "COSMOS 2251 DEB", "OBJECT_ID": "1993-036UP", "EPOCH": "2025-12-24T06:14:19.450176", "MEAN_MOTION": 14.57826174, "ECCENTRICITY": 0.00190662, "INCLINATION": 74.0247, "RA_OF_ASC_NODE": 169.9724, "ARG_OF_PERICENTER": 246.5811, "MEAN_ANOMALY": 169.7479, "EPHEMERIS_TYPE": 0, "CLASSIFICATION_TYPE": "U", "NORAD_CAT_ID": 34553, "ELEMENT_SET_NO": 999, "REV_AT_EPOCH": 88264, "BSTAR": 0.0012008966, "MEAN_MOTION_DOT": 5.485e-05, "MEAN_MOTION_DDOT": 0}, "tle": {"line1": "1 34553U 93036UP  25358.25994734  .00005485  00000+0  12009-2 0  9992", "line2": "2 34553  74.0247 169.9724 0019066 246.5811 169.7479 14.57826174882649"}}, "geometry": {"type": "Point", "coordinates": [3.0470647736963135, -40.0183020944585]}}, {"type": "Feature", "properties": {"norad_id": 34554, "name": "COSMOS 2251 DEB", "group": "cosmos-2251-debris", "lat": -14.172523231145714, "lon": 101.10730218269823, "alt_km": 782.7868796369694, "timestamp": "2025-12-24T16:52:41.932041+00:00", "meta": {"OBJECT_NAME": "COSMOS 2251 DEB", "OBJECT_ID": "1993-036UQ", "EPOCH": "2025-12-24T04:59:10.648896", "MEAN_MOTION": 14.37960324, "ECCENTRICITY": 0.00235016, "INCLINATION": 74.039, "RA_OF_ASC_NODE": 277.8748, "ARG_OF_PERICENTER": 338.0464, "MEAN_ANOMALY": 172.7523, "EPHEMERIS_TYPE": 0, "CLASSIFICATION_TYPE": "U", "NORAD_CAT_ID": 34554, "ELEMENT_SET_NO": 999, "REV_AT_EPOCH": 87920, "BSTAR": 0.00030656362, "MEAN_MOTION_DOT": 9.03e-06, "MEAN_MOTION_DDOT": 0}, "tle": {"line1": "1 34554U 93036UQ  25358.20776214  .00000903  00000+0  30656-3 0  9998", "line2": "2 34554  74.0390 277.8748 0023501 338.0464 172.7523 14.37960324879200"}}, "geometry": {"type": "Point", "coordinates": [101.10730218269823, -14.172523231145714]}}, {"type": "Feature", "properties": {"norad_id": 34556, "name": "COSMOS 2251 DEB", "group": "cosmos-2251-debris", "lat": -72.97949968799429, "lon": 31.893121745249776, "alt_km": 644.0278037384805, "timestamp": "2025-12-24T16:52:41.932051+00:00", "meta": {"OBJECT_NAME": "COSMOS 2251 DEB", "OBJECT_ID": "1993-036US", "EPOCH": "2025-12-23T07:17:17.327328", "MEAN_MOTION": 14.78109579, "ECCENTRICITY": 0.00064714, "INCLINATION": 74.0161, "RA_OF_ASC_NODE": 104.0894, "ARG_OF_PERICENTER": 163.8101, "MEAN_ANOMALY": 227.5326, "EPHEMERIS_TYPE": 0, "CLASSIFICATION_TYPE": "U", "NORAD_CAT_ID": 34556, "ELEMENT_SET_NO": 999, "REV_AT_EPOCH": 88485, "BSTAR": 0.0023118046, "MEAN_MOTION_DOT": 0.00016741, "MEAN_MOTION_DDOT": 0}, "tle": {"line1": "1 34556U 93036US  25357.30367277  .00016741  00000+0  23118-2 0  9996", "line2": "2 34556  74.0161 104.0894 0006471 163.8101 227.5326 14.78109579884859"}}, "geometry": {"type": "Point", "coordinates": [31.893121745249776, -72.97949968799429]}}, {"type": "Feature", "properties": {"norad_id": 34560, "name": "COSMOS 2251 DEB", "group": "cosmos-2251-debris", "lat": -68.62314589819054, "lon": 71.75557515250433, "alt_km": 659.0431036387436, "timestamp": "2025-12-24T16:52:41.932062+00:00", "meta": {"OBJECT_NAME": "COSMOS 2251 DEB", "OBJECT_ID": "1993-036UW", "EPOCH": "2025-12-23T07:04:29.741952", "MEAN_MOTION": 14.72394071, "ECCENTRICITY": 0.0013845, "INCLINATION": 74.0173, "RA_OF_ASC_NODE": 121.571, "ARG_OF_PERICENTER": 204.3382, "MEAN_ANOMALY": 177.1217, "EPHEMERIS_TYPE": 0, "CLASSIFICATION_TYPE": "U", "NORAD_CAT_ID": 34560, "ELEMENT_SET_NO": 999, "REV_AT_EPOCH": 88407, "BSTAR": 0.0022712261, "MEAN_MOTION_DOT": 0.00014408, "MEAN_MOTION_DDOT": 0}, "tle": {"line1": "1 34560U 93036UW  25357.29478868  .00014408  00000+0  22712-2 0  9995", "line2": "2 34560  74.0173 121.5710 0013845 204.3382 177.1217 14.72394071884073"}}, "geometry": {"type": "Point", "coordinates": [71.75557515250433, -68.62314589819054]}}, {"type": "Feature", "properties": {"norad_id": 34563, "name": "COSMOS 2251 DEB", "group": "cosmos-2251-debris", "lat": 20.097167865026275, "lon": -172.61607763572087, "alt_km": 739.4320074041589, "timestamp": "2025-12-24T16:52:41.932073+00:00", "meta": {"OBJECT_NAME": "COSMOS 2251 DEB", "OBJECT_ID": "1993-036UZ", "EPOCH": "2025-12-23T23:05:47.586912", "MEAN_MOTION": 14.46543092, "ECCENTRICITY": 0.0013919, "INCLINATION": 74.0364, "RA_OF_ASC_NODE": 182.755, "ARG_OF_PERICENTER": 276.181, "MEAN_ANOMALY": 207.9628, "EPHEMERIS_TYPE": 0, "CLASSIFICATION_TYPE": "U", "NORAD_CAT_ID": 34563, "ELEMENT_SET_NO": 999, "REV_AT_EPOCH": 88359, "BSTAR": 0.00041104, "MEAN_MOTION_DOT": 1.456e-05, "MEAN_MOTION_DDOT": 0}, "tle": {"line1": "1 34563U 93036UZ  25357.96235633  .00001456  00000+0  41104-3 0  9999", "line2": "2 34563  74.0364 182.7550 0013919 276.1810 207.9628 14.46543092883598"}}, "geometry": {"type": "Point", "coordinates": [-172.61607763572087, 20.097167865026275]}}, {"type": "Feature", "properties": {"norad_id": 34564, "name": "COSMOS 2251 DEB", "group": "cosmos-2251-debris", "lat": -73.98068737013182, "lon": 121.68050817560228, "alt_km": 754.0593111098615, "timestamp": "2025-12-24T16:52:41.932084+00:00", "meta": {"OBJECT_NAME": "COSMOS 2251 DEB", "OBJECT_ID": "1993-036VA", "EPOCH": "2025-12-24T01:22:04.041408", "MEAN_MOTION": 14.40708117, "ECCENTRICITY": 0.00194069, "INCLINATION": 74.0313, "RA_OF_ASC_NODE": 217.0733, "ARG_OF_PERICENTER": 319.4075, "MEAN_ANOMALY": 199.0322, "EPHEMERIS_TYPE": 0, "CLASSIFICATION_TYPE": "U", "NORAD_CAT_ID": 34564, "ELEMENT_SET_NO": 999, "REV_AT_EPOCH": 88169, "BSTAR": 0.0002196941, "MEAN_MOTION_DOT": 6.77e-06, "MEAN_MOTION_DDOT": 0}, "tle": {"line1": "1 34564U 93036VA  25358.05699122  .00000677  00000+0  21969-3 0  9999", "line2": "2 34564  74.0313 217.0733 0019406 319.4075 199.0322 14.40708117881695"}}, "geometry": {"type": "Point", "coordinates": [121.68050817560228, -73.98068737013182]}}, {"type": "Feature", "properties": {"norad_id": 34567, "name": "COSMOS 2251 DEB", "group": "cosmos-2251-debris", "lat": -39.94163093412272, "lon": 121.38490833709437, "alt_km": 836.9005232061154, "timestamp": "2025-12-24T16:52:41.932094+00:00", "meta": {"OBJECT_NAME": "COSMOS 2251 DEB", "OBJECT_ID": "1993-036VD", "EPOCH": "2025-12-23T10:59:19.321728", "MEAN_MOTION": 14.2402819, "ECCENTRICITY": 0.00741334, "INCLINATION": 74.0409, "RA_OF_ASC_NODE": 137.4896, "ARG_OF_PERICENTER": 209.455, "MEAN_ANOMALY": 205.9365, "EPHEMERIS_TYPE": 0, "CLASSIFICATION_TYPE": "U", "NORAD_CAT_ID": 34567, "ELEMENT_SET_NO": 999, "REV_AT_EPOCH": 87277, "BSTAR": 0.00022860258, "MEAN_MOTION_DOT": 5.15e-06, "MEAN_MOTION_DDOT": 0}, "tle": {"line1": "1 34567U 93036VD  25357.45786252  .00000515  00000+0  22860-3 0  9998", "line2": "2 34567  74.0409 137.4896 0074133 209.4550 205.9365 14.24028190872774"}}, "geometry": {"type": "Point", "coordinates": [121.38490833709437, -39.94163093412272]}}, {"type": "Feature", "properties": {"norad_id": 34569, "name": "COSMOS 2251 DEB", "group": "cosmos-2251-debris", "lat": 22.382249233489162, "lon": -10.286926332181807, "alt_km": 910.4895458105448, "timestamp": "2025-12-24T16:52:41.932104+00:00", "meta": {"OBJECT_NAME": "COSMOS 2251 DEB", "OBJECT_ID": "1993-036VF", "EPOCH": "2025-12-23T11:37:49.326816", "MEAN_MOTION": 14.24778042, "ECCENTRICITY": 0.01578, "INCLINATION": 73.9893, "RA_OF_ASC_NODE": 178.7069, "ARG_OF_PERICENTER": 4.6429, "MEAN_ANOMALY": 22.8276, "EPHEMERIS_TYPE": 0, "CLASSIFICATION_TYPE": "U", "NORAD_CAT_ID": 34569, "ELEMENT_SET_NO": 999, "REV_AT_EPOCH": 87121, "BSTAR": 0.00040063645, "MEAN_MOTION_DOT": 1.036e-05, "MEAN_MOTION_DDOT": 0}, "tle": {"line1": "1 34569U 93036VF  25357.48459869  .00001036  00000+0  40064-3 0  9999", "line2": "2 34569  73.9893 178.7069 0157800   4.6429  22.8276 14.24778042871217"}}, "geometry": {"type": "Point", "coordinates": [-10.286926332181807, 22.382249233489162]}}, {"type": "Feature", "properties": {"norad_id": 34570, "name": "COSMOS 2251 DEB", "group": "cosmos-2251-debris", "lat": 73.4777312117438, "lon": -58.4618437964537, "alt_km": 754.1852837696633, "timestamp": "2025-12-24T16:52:41.932115+00:00", "meta": {"OBJECT_NAME": "COSMOS 2251 DEB", "OBJECT_ID": "1993-036VG", "EPOCH": "2025-12-23T06:40:44.080608", "MEAN_MOTION": 13.99837278, "ECCENTRICITY": 0.01902095, "INCLINATION": 73.9564, "RA_OF_ASC_NODE": 199.9553, "ARG_OF_PERICENTER": 80.1017, "MEAN_ANOMALY": 34.9685, "EPHEMERIS_TYPE": 0, "CLASSIFICATION_TYPE": "U", "NORAD_CAT_ID": 34570, "ELEMENT_SET_NO": 999, "REV_AT_EPOCH": 85748, "BSTAR": 0.00047470822, "MEAN_MOTION_DOT": 7.91e-06, "MEAN_MOTION_DDOT": 0}, "tle": {"line1": "1 34570U 93036VG  25357.27828797  .00000791  00000+0  47471-3 0  9994", "line2": "2 34570  73.9564 199.9553 0190209  80.1017  34.9685 13.99837278857488"}}, "geometry": {"type": "Point", "coordinates": [-58.4618437964537, 73.4777312117438]}}, {"type": "Feature", "properties": {"norad_id": 34571, "name": "COSMOS 2251 DEB", "group": "cosmos-2251-debris", "lat": -68.85477643328399, "lon": 27.73955172212341, "alt_km": 714.8768742193488, "timestamp": "2025-12-24T16:52:41.932126+00:00", "meta": {"OBJECT_NAME": "COSMOS 2251 DEB", "OBJECT_ID": "1993-036VH", "EPOCH": "2025-12-24T04:06:15.376320", "MEAN_MOTION": 14.49001273, "ECCENTRICITY": 0.00649639, "INCLINATION": 74.0387, "RA_OF_ASC_NODE": 161.0081, "ARG_OF_PERICENTER": 193.6538, "MEAN_ANOMALY": 166.2868, "EPHEMERIS_TYPE": 0, "CLASSIFICATION_TYPE": "U", "NORAD_CAT_ID": 34571, "ELEMENT_SET_NO": 999, "REV_AT_EPOCH": 87459, "BSTAR": 0.0028857954, "MEAN_MOTION_DOT": 0.00011232, "MEAN_MOTION_DDOT": 0}, "tle": {"line1": "1 34571U 93036VH  25358.17101130  .00011232  00000+0  28858-2 0  9999", "line2": "2 34571  74.0387 161.0081 0064963 193.6538 166.2868 14.49001273874592"}}, "geometry": {"type": "Point", "coordinates": [27.73955172212341, -68.85477643328399]}}]}